DIRECTV 11              
1 32729U 08013A   26064.15391735 -.00000134  00000+0  00000+0 0  9994
2 32729   0.0166 327.4386 0000280  26.8381 124.8238  1.00271778 44558
GALAXY 18 (G-18)        
1 32951U 08024A   26064.27361733  .00000000  00000+0  00000+0 0  9992
2 32951   0.0232 160.1008 0003220 209.9997 128.4281  1.00271242 44819
INTELSAT 25 (IS-25)     
1 33153U 08034A   26064.17683491 -.00000232  00000+0  00000+0 0  9993
2 33153   2.4394  81.6096 0003705 246.6817 226.7636  1.00270313 64658
GALAXY 19 (G-19)        
1 33376U 08045A   26064.20749036 -.00000148  00000+0  00000+0 0  9990
2 33376   0.0473 263.2411 0003152  96.3188 141.0610  1.00271887 63863
FM-5                    
1 35493U 09034A   26064.03864367 -.00000209  00000+0  00000+0 0  9995
2 35493   0.0375 271.8439 0000811 316.8973 221.7677  1.00270109 45597
INTELSAT 14 (IS-14)     
1 36097U 09064A   26064.21771707 -.00000282  00000+0  00000+0 0  9995
2 36097   0.0231  93.3191 0002619 268.2767 194.7216  1.00271079 59567
INTELSAT 15 (IS-15)     
1 36106U 09067A   26063.75322707 -.00000195  00000+0  00000+0 0  9992
2 36106   0.0197 204.6455 0002400 150.0110 164.1279  1.00269962 40183
DIRECTV 12              
1 36131U 09075A   26064.20636368 -.00000112  00000+0  00000+0 0  9990
2 36131   0.0177 336.9416 0000363  38.6187 118.9532  1.00271993 45514
INTELSAT 16 (IS-16)     
1 36397U 10006A   26064.06890973 -.00000254  00000+0  00000+0 0  9995
2 36397   0.0210 114.6643 0002010 240.2241 116.5039  1.00270641 58612
XM-5                    
1 37185U 10053A   26064.15947523 -.00000032  00000+0  00000+0 0  9991
2 37185   0.0653 274.6119 0003262 251.9262 298.5463  1.00270380 56447
INTELSAT 17 (IS-17)     
1 37238U 10065B   26064.24142066 -.00000010  00000+0  00000+0 0  9998
2 37238   0.0179 192.5642 0002486 156.9537 326.3546  1.00272701 52205
INTELSAT 28 (IS-28)     
1 37392U 11016A   26064.22040375 -.00000233  00000+0  00000+0 0  9991
2 37392   1.5374  83.9737 0004652 259.2525 227.3651  1.00272317 52242
INTELSAT 18 (IS-18)     
1 37834U 11056A   26064.26235061  .00000044  00000+0  00000+0 0  9997
2 37834   0.0414 269.8463 0001942  70.0367  97.5393  1.00273962 52769
INTELSAT 22 (IS-22)     
1 38098U 12011A   26063.86794664 -.00000069  00000+0  00000+0 0  9994
2 38098   0.0193 219.8398 0001599 145.7888 181.5541  1.00273703  6147
INTELSAT 19 (IS-19)     
1 38356U 12030A   26064.19420204  .00000000  00000+0  00000+0 0  9999
2 38356   0.0250 147.0352 0003143 215.5411  36.2861  1.00270398 49409
INTELSAT 20 (IS-20)     
1 38740U 12043A   26063.75511131 -.00000036  00000+0  00000+0 0  9991
2 38740   0.0192 138.3024 0002245  34.7865 329.7427  1.00277570 49706
INTELSAT 21 (IS-21)     
1 38749U 12045A   26064.28644405 -.00000293  00000+0  00000+0 0  9997
2 38749   0.0308 256.7283 0001781  96.9834 214.4198  1.00270495 49485
