[{"OBJECT_NAME":"DIRECTV 11","OBJECT_ID":"2008-013A","EPOCH":"2026-03-05T03:41:38.459040","MEAN_MOTION":1.00271778,"ECCENTRICITY":2.805e-5,"INCLINATION":0.0166,"RA_OF_ASC_NODE":327.4386,"ARG_OF_PERICENTER":26.8381,"MEAN_ANOMALY":124.8238,"EPHEMERIS_TYPE":0,"CLASSIFICATION_TYPE":"U","NORAD_CAT_ID":32729,"ELEMENT_SET_NO":999,"REV_AT_EPOCH":4455,"BSTAR":0,"MEAN_MOTION_DOT":-1.34e-6,"MEAN_MOTION_DDOT":0},{"OBJECT_NAME":"GALAXY 18 (G-18)","OBJECT_ID":"2008-024A","EPOCH":"2026-03-05T06:34:00.537312","MEAN_MOTION":1.00271242,"ECCENTRICITY":0.00032201,"INCLINATION":0.0232,"RA_OF_ASC_NODE":160.1008,"ARG_OF_PERICENTER":209.9997,"MEAN_ANOMALY":128.4281,"EPHEMERIS_TYPE":0,"CLASSIFICATION_TYPE":"U","NORAD_CAT_ID":32951,"ELEMENT_SET_NO":999,"REV_AT_EPOCH":4481,"BSTAR":0,"MEAN_MOTION_DOT":0,"MEAN_MOTION_DDOT":0},{"OBJECT_NAME":"INTELSAT 25 (IS-25)","OBJECT_ID":"2008-034A","EPOCH":"2026-03-05T04:14:38.536224","MEAN_MOTION":1.00270313,"ECCENTRICITY":0.00037058,"INCLINATION":2.4394,"RA_OF_ASC_NODE":81.6096,"ARG_OF_PERICENTER":246.6817,"MEAN_ANOMALY":226.7636,"EPHEMERIS_TYPE":0,"CLASSIFICATION_TYPE":"U","NORAD_CAT_ID":33153,"ELEMENT_SET_NO":999,"REV_AT_EPOCH":6465,"BSTAR":0,"MEAN_MOTION_DOT":-2.32e-6,"MEAN_MOTION_DDOT":0},{"OBJECT_NAME":"GALAXY 19 (G-19)","OBJECT_ID":"2008-045A","EPOCH":"2026-03-05T04:58:47.167104","MEAN_MOTION":1.00271887,"ECCENTRICITY":0.00031522,"INCLINATION":0.0473,"RA_OF_ASC_NODE":263.2411,"ARG_OF_PERICENTER":96.3188,"MEAN_ANOMALY":141.061,"EPHEMERIS_TYPE":0,"CLASSIFICATION_TYPE":"U","NORAD_CAT_ID":33376,"ELEMENT_SET_NO":999,"REV_AT_EPOCH":6386,"BSTAR":0,"MEAN_MOTION_DOT":-1.48e-6,"MEAN_MOTION_DDOT":0},{"OBJECT_NAME":"FM-5","OBJECT_ID":"2009-034A","EPOCH":"2026-03-05T00:55:38.813088","MEAN_MOTION":1.00270109,"ECCENTRICITY":8.112e-5,"INCLINATION":0.0375,"RA_OF_ASC_NODE":271.8439,"ARG_OF_PERICENTER":316.8973,"MEAN_ANOMALY":221.7677,"EPHEMERIS_TYPE":0,"CLASSIFICATION_TYPE":"U","NORAD_CAT_ID":35493,"ELEMENT_SET_NO":999,"REV_AT_EPOCH":4559,"BSTAR":0,"MEAN_MOTION_DOT":-2.09e-6,"MEAN_MOTION_DDOT":0},{"OBJECT_NAME":"INTELSAT 14 (IS-14)","OBJECT_ID":"2009-064A","EPOCH":"2026-03-05T05:13:30.754848","MEAN_MOTION":1.00271079,"ECCENTRICITY":0.00026197,"INCLINATION":0.0231,"RA_OF_ASC_NODE":93.3191,"ARG_OF_PERICENTER":268.2767,"MEAN_ANOMALY":194.7216,"EPHEMERIS_TYPE":0,"CLASSIFICATION_TYPE":"U","NORAD_CAT_ID":36097,"ELEMENT_SET_NO":999,"REV_AT_EPOCH":5956,"BSTAR":0,"MEAN_MOTION_DOT":-2.82e-6,"MEAN_MOTION_DDOT":0},{"OBJECT_NAME":"INTELSAT 15 (IS-15)","OBJECT_ID":"2009-067A","EPOCH":"2026-03-04T18:04:38.818848","MEAN_MOTION":1.00269962,"ECCENTRICITY":0.00024008,"INCLINATION":0.0197,"RA_OF_ASC_NODE":204.6455,"ARG_OF_PERICENTER":150.011,"MEAN_ANOMALY":164.1279,"EPHEMERIS_TYPE":0,"CLASSIFICATION_TYPE":"U","NORAD_CAT_ID":36106,"ELEMENT_SET_NO":999,"REV_AT_EPOCH":4018,"BSTAR":0,"MEAN_MOTION_DOT":-1.95e-6,"MEAN_MOTION_DDOT":0},{"OBJECT_NAME":"DIRECTV 12","OBJECT_ID":"2009-075A","EPOCH":"2026-03-05T04:57:09.821952","MEAN_MOTION":1.00271993,"ECCENTRICITY":3.636e-5,"INCLINATION":0.0177,"RA_OF_ASC_NODE":336.9416,"ARG_OF_PERICENTER":38.6187,"MEAN_ANOMALY":118.9532,"EPHEMERIS_TYPE":0,"CLASSIFICATION_TYPE":"U","NORAD_CAT_ID":36131,"ELEMENT_SET_NO":999,"REV_AT_EPOCH":4551,"BSTAR":0,"MEAN_MOTION_DOT":-1.12e-6,"MEAN_MOTION_DDOT":0},{"OBJECT_NAME":"INTELSAT 16 (IS-16)","OBJECT_ID":"2010-006A","EPOCH":"2026-03-05T01:39:13.800672","MEAN_MOTION":1.00270641,"ECCENTRICITY":0.00020103,"INCLINATION":0.021,"RA_OF_ASC_NODE":114.6643,"ARG_OF_PERICENTER":240.2241,"MEAN_ANOMALY":116.5039,"EPHEMERIS_TYPE":0,"CLASSIFICATION_TYPE":"U","NORAD_CAT_ID":36397,"ELEMENT_SET_NO":999,"REV_AT_EPOCH":5861,"BSTAR":0,"MEAN_MOTION_DOT":-2.54e-6,"MEAN_MOTION_DDOT":0},{"OBJECT_NAME":"XM-5","OBJECT_ID":"2010-053A","EPOCH":"2026-03-05T03:49:38.659872","MEAN_MOTION":1.0027038,"ECCENTRICITY":0.00032621,"INCLINATION":0.0653,"RA_OF_ASC_NODE":274.6119,"ARG_OF_PERICENTER":251.9262,"MEAN_ANOMALY":298.5463,"EPHEMERIS_TYPE":0,"CLASSIFICATION_TYPE":"U","NORAD_CAT_ID":37185,"ELEMENT_SET_NO":999,"REV_AT_EPOCH":5644,"BSTAR":0,"MEAN_MOTION_DOT":-3.2e-7,"MEAN_MOTION_DDOT":0},{"OBJECT_NAME":"INTELSAT 17 (IS-17)","OBJECT_ID":"2010-065B","EPOCH":"2026-03-05T05:47:38.745024","MEAN_MOTION":1.00272701,"ECCENTRICITY":0.00024864,"INCLINATION":0.0179,"RA_OF_ASC_NODE":192.5642,"ARG_OF_PERICENTER":156.9537,"MEAN_ANOMALY":326.3546,"EPHEMERIS_TYPE":0,"CLASSIFICATION_TYPE":"U","NORAD_CAT_ID":37238,"ELEMENT_SET_NO":999,"REV_AT_EPOCH":5220,"BSTAR":0,"MEAN_MOTION_DOT":-1.0e-7,"MEAN_MOTION_DDOT":0},{"OBJECT_NAME":"INTELSAT 28 (IS-28)","OBJECT_ID":"2011-016A","EPOCH":"2026-03-05T05:17:22.884000","MEAN_MOTION":1.00272317,"ECCENTRICITY":0.00046521,"INCLINATION":1.5374,"RA_OF_ASC_NODE":83.9737,"ARG_OF_PERICENTER":259.2525,"MEAN_ANOMALY":227.3651,"EPHEMERIS_TYPE":0,"CLASSIFICATION_TYPE":"U","NORAD_CAT_ID":37392,"ELEMENT_SET_NO":999,"REV_AT_EPOCH":5224,"BSTAR":0,"MEAN_MOTION_DOT":-2.33e-6,"MEAN_MOTION_DDOT":0},{"OBJECT_NAME":"INTELSAT 18 (IS-18)","OBJECT_ID":"2011-056A","EPOCH":"2026-03-05T06:17:47.092704","MEAN_MOTION":1.00273962,"ECCENTRICITY":0.00019426,"INCLINATION":0.0414,"RA_OF_ASC_NODE":269.8463,"ARG_OF_PERICENTER":70.0367,"MEAN_ANOMALY":97.5393,"EPHEMERIS_TYPE":0,"CLASSIFICATION_TYPE":"U","NORAD_CAT_ID":37834,"ELEMENT_SET_NO":999,"REV_AT_EPOCH":5276,"BSTAR":0,"MEAN_MOTION_DOT":4.4e-7,"MEAN_MOTION_DDOT":0},{"OBJECT_NAME":"INTELSAT 22 (IS-22)","OBJECT_ID":"2012-011A","EPOCH":"2026-03-04T20:49:50.589696","MEAN_MOTION":1.00273703,"ECCENTRICITY":0.00015992,"INCLINATION":0.0193,"RA_OF_ASC_NODE":219.8398,"ARG_OF_PERICENTER":145.7888,"MEAN_ANOMALY":181.5541,"EPHEMERIS_TYPE":0,"CLASSIFICATION_TYPE":"U","NORAD_CAT_ID":38098,"ELEMENT_SET_NO":999,"REV_AT_EPOCH":614,"BSTAR":0,"MEAN_MOTION_DOT":-6.9e-7,"MEAN_MOTION_DDOT":0},{"OBJECT_NAME":"INTELSAT 19 (IS-19)","OBJECT_ID":"2012-030A","EPOCH":"2026-03-05T04:39:39.056256","MEAN_MOTION":1.00270398,"ECCENTRICITY":0.00031437,"INCLINATION":0.025,"RA_OF_ASC_NODE":147.0352,"ARG_OF_PERICENTER":215.5411,"MEAN_ANOMALY":36.2861,"EPHEMERIS_TYPE":0,"CLASSIFICATION_TYPE":"U","NORAD_CAT_ID":38356,"ELEMENT_SET_NO":999,"REV_AT_EPOCH":4940,"BSTAR":0,"MEAN_MOTION_DOT":0,"MEAN_MOTION_DDOT":0},{"OBJECT_NAME":"INTELSAT 20 (IS-20)","OBJECT_ID":"2012-043A","EPOCH":"2026-03-04T18:07:21.617184","MEAN_MOTION":1.0027757,"ECCENTRICITY":0.00022458,"INCLINATION":0.0192,"RA_OF_ASC_NODE":138.3024,"ARG_OF_PERICENTER":34.7865,"MEAN_ANOMALY":329.7427,"EPHEMERIS_TYPE":0,"CLASSIFICATION_TYPE":"U","NORAD_CAT_ID":38740,"ELEMENT_SET_NO":999,"REV_AT_EPOCH":4970,"BSTAR":0,"MEAN_MOTION_DOT":-3.6e-7,"MEAN_MOTION_DDOT":0},{"OBJECT_NAME":"INTELSAT 21 (IS-21)","OBJECT_ID":"2012-045A","EPOCH":"2026-03-05T06:52:28.765920","MEAN_MOTION":1.00270495,"ECCENTRICITY":0.00017816,"INCLINATION":0.0308,"RA_OF_ASC_NODE":256.7283,"ARG_OF_PERICENTER":96.9834,"MEAN_ANOMALY":214.4198,"EPHEMERIS_TYPE":0,"CLASSIFICATION_TYPE":"U","NORAD_CAT_ID":38749,"ELEMENT_SET_NO":999,"REV_AT_EPOCH":4948,"BSTAR":0,"MEAN_MOTION_DOT":-2.93e-6,"MEAN_MOTION_DDOT":0}]
